[{"OBJECT_ID":"2011-022C","OBJECT_NAME":"ARIANE 5 R/B","NORAD_CAT_ID":"37607","OBJECT_TYPE":"ROCKET BODY","PERIOD":"483.295","INCLINATION":"1.754","APOGEE":"27820.870","PERIGEE":"223.322","ECCENTRICITY":"0.6764028","MEAN_MOTION":"2.9795461","TLE_LINE1":"1 37607U 11022C   16238.78726675  .00002736  00000-0  27252-3 0  9996","TLE_LINE2":"2 37607   1.7540 148.1961 6764028 271.0874  18.3794  2.97954610 50138","LAUNCH_DATE":"2011-05-20","LAUNCH_SITE":"FRENCH GUIANA","OWNER":"FRANCE","ORBIT_TYPE":"Highly Elliptical Orbit","OPERATIONAL_STATUS":"N/A, derelict rocket body","satInfo":{"lng":50.67297693835881,"lat":-0.4627255573087302,"elevation":-11.158373097480872,"azimuth":264.32702306164117,"range":34250.24344167658,"height":27225.734756392827,"velocity":1.9779235058160953},"x":157,"y":-136,"dx":1.253500669528951,"dy":1.5300057079469687},{"OBJECT_ID":"2011-032A","OBJECT_NAME":"TIANLIAN 1-02","NORAD_CAT_ID":"37737","OBJECT_TYPE":"PAYLOAD","PERIOD":"1436.118","INCLINATION":"1.9883","APOGEE":"35809.229","PERIGEE":"35764.795","ECCENTRICITY":"0.0005269","MEAN_MOTION":"1.00270303","TLE_LINE1":"1 37737U 11032A   16238.71354186  .00000002  00000-0  00000+0 0  9990","TLE_LINE2":"2 37737   1.9883  78.8757 0005269 135.0649 194.1131  1.00270303 18791","LAUNCH_DATE":"2011-07-11","LAUNCH_SITE":"Xichang Space Center, China","OWNER":"PEOPLES REPUBLIC OF CHINA","ORBIT_TYPE":"Geosynchronous","OPERATIONAL_STATUS":"Operational","satInfo":{"lng":73.93765658738258,"lat":2.684821971326276,"elevation":-5.953708067342202,"azimuth":241.06234341261742,"range":42291.16231766348,"height":35731.083521892695,"velocity":3.0774553575886068},"x":256,"y":-78,"dx":0.8514800090616833,"dy":2.9573152135203875},{"OBJECT_ID":"2011-041C","OBJECT_NAME":"ARIANE 5 R/B","NORAD_CAT_ID":"37777","OBJECT_TYPE":"ROCKET BODY","PERIOD":"603.914","INCLINATION":"1.9781","APOGEE":"34304.243","PERIGEE":"273.545","ECCENTRICITY":"0.7189474","MEAN_MOTION":"2.38444408","TLE_LINE1":"1 37777U 11041C   16237.72573300 +.00000770 +00000-0 +33107-3 0  9995","TLE_LINE2":"2 37777 001.9781 065.4421 7189474 299.8757 008.0286 02.38444408043107","LAUNCH_DATE":"2011-08-06","LAUNCH_SITE":"FRENCH GUIANA","OWNER":"FRANCE","ORBIT_TYPE":"Highly Elliptical Orbit","OPERATIONAL_STATUS":"N/A, derelict rocket body","satInfo":{"lng":-169.34084008865088,"lat":1.7012637240353603,"elevation":-7.306753546991966,"azimuth":124.34084008865085,"range":40591.9325197489,"height":33901.90345217088,"velocity":1.6918758839803865},"x":-47,"y":262,"dx":-1.6626823777427906,"dy":-0.31293979858432},{"OBJECT_ID":"2011-047A","OBJECT_NAME":"CHINASAT 1A","NORAD_CAT_ID":"37804","OBJECT_TYPE":"PAYLOAD","PERIOD":"1436.167","INCLINATION":"0.0641","APOGEE":"35796.758","PERIGEE":"35779.191","ECCENTRICITY":"0.0002083","MEAN_MOTION":"1.00266869","TLE_LINE1":"1 37804U 11047A   16238.70243154 -.00000366 +00000-0 +00000-0 0  9997","TLE_LINE2":"2 37804 000.0641 283.6551 0002083 322.6628 110.7449 01.00266869018156","LAUNCH_DATE":"2011-09-17","LAUNCH_SITE":"Xichang Space Center, China","OWNER":"PEOPLES REPUBLIC OF CHINA","ORBIT_TYPE":"Geosynchronous","OPERATIONAL_STATUS":"Operational","satInfo":{"lng":117.15224020240622,"lat":-0.8003031930054074,"elevation":-9.353184532070125,"azimuth":197.84775979759377,"range":42736.77641403113,"height":35794.57585787401,"velocity":3.074715194806626},"x":238,"y":129,"dx":-1.4031658999640735,"dy":2.735872618809721},{"OBJECT_ID":"2011-048A","OBJECT_NAME":"COSMOS 2473","NORAD_CAT_ID":"37806","OBJECT_TYPE":"PAYLOAD","PERIOD":"1436.113","INCLINATION":"0.0431","APOGEE":"35796.242","PERIGEE":"35777.588","ECCENTRICITY":"0.0002212","MEAN_MOTION":"1.00270649","TLE_LINE1":"1 37806U 11048A   16238.11026037 -.00000134 +00000-0 +00000-0 0  9997","TLE_LINE2":"2 37806 000.0431 138.4180 0002212 126.4957 095.0560 01.00270649018126","LAUNCH_DATE":"2011-09-20","LAUNCH_SITE":"TYURATAM MISSILE AND SPACE COMPLEX","OWNER":"COMMONWEALTH OF INDEPENDENT STATES","ORBIT_TYPE":"Geosynchronous","OPERATIONAL_STATUS":"Operational","satInfo":{"lng":-151.9444102141461,"lat":-0.9672488817520475,"elevation":-9.523011236145509,"azimuth":106.94441021414609,"range":42719.73629708953,"height":35758.88677371015,"velocity":3.075902028268741},"x":-126,"y":248,"dx":-2.7144579619918185,"dy":-1.4466828470977935},{"OBJECT_ID":"2011-051A","OBJECT_NAME":"EUTE 7 WEST A (AB 7)","NORAD_CAT_ID":"37816","OBJECT_TYPE":"PAYLOAD","PERIOD":"1436.092","INCLINATION":"0.0803","APOGEE":"35801.106","PERIGEE":"35771.920","ECCENTRICITY":"0.0003461","MEAN_MOTION":"1.00272083","TLE_LINE1":"1 37816U 11051A   16238.09320598 -.00000086  00000-0  00000+0 0  9993","TLE_LINE2":"2 37816   0.0803  48.5749 0003461 126.7068 184.7166  1.00272083 18048","LAUNCH_DATE":"2011-09-24","LAUNCH_SITE":"SEA LAUNCH","OWNER":"EUROPEAN TELECOMMUNICATIONS SATELLITE ORGANIZATION (EUTELSAT)","ORBIT_TYPE":"Geosynchronous","OPERATIONAL_STATUS":"Operational","satInfo":{"lng":69.74920115444785,"lat":0.38868787710102354,"elevation":-8.190191483632777,"azimuth":245.25079884555214,"range":42617.344753943,"height":35805.507504007765,"velocity":3.074537670125688},"x":251,"y":-98,"dx":1.0641901473168256,"dy":2.884489766904311},{"OBJECT_ID":"2011-051B","OBJECT_NAME":"BLOCK DM-SL R/B","NORAD_CAT_ID":"37817","OBJECT_TYPE":"ROCKET BODY","PERIOD":"653.525","INCLINATION":"0.7721","APOGEE":"35566.498","PERIGEE":"1569.359","ECCENTRICITY":"0.6814129","MEAN_MOTION":"2.20343236","TLE_LINE1":"1 37817U 11051B   16238.96646324 -.00000245  00000-0  00000+0 0  9995","TLE_LINE2":"2 37817   0.7721  12.4848 6814129 129.5804 303.9531  2.20343236 39597","LAUNCH_DATE":"2011-09-24","LAUNCH_SITE":"SEA LAUNCH","OWNER":"SEA LAUNCH DEMO","ORBIT_TYPE":"Highly Elliptical Orbit","OPERATIONAL_STATUS":"N/A, derelict rocket body","satInfo":{"lng":168.6336465649144,"lat":-0.46305997447155073,"elevation":-9.138139182183117,"azimuth":146.36635343508559,"range":42143.693988237734,"height":35232.039797001926,"velocity":1.7835115616047783},"x":52,"y":272,"dx":-1.7485316894350145,"dy":0.35149739888006143},{"OBJECT_ID":"2011-054A","OBJECT_NAME":"QUETZSAT 1","NORAD_CAT_ID":"37826","OBJECT_TYPE":"PAYLOAD","PERIOD":"1436.053","INCLINATION":"0.0628","APOGEE":"35796.240","PERIGEE":"35775.267","ECCENTRICITY":"0.0002487","MEAN_MOTION":"1.00274792","TLE_LINE1":"1 37826U 11054A   16239.27414123 -.00000270  00000-0  00000+0 0  9991","TLE_LINE2":"2 37826   0.0628 291.1711 0002487 227.1172 198.3392  1.00274792 18184","LAUNCH_DATE":"2011-09-29","LAUNCH_SITE":"TYURATAM MISSILE AND SPACE COMPLEX","OWNER":"MEXICO","ORBIT_TYPE":"Geosynchronous","OPERATIONAL_STATUS":"Operational","satInfo":{"lng":-93.06352188695,"lat":1.8435834645418085,"elevation":-6.764798149072517,"azimuth":48.06352188695001,"range":42458.613956394205,"height":35806.696639116584,"velocity":3.073673861444459},"x":-267,"y":15,"dx":-0.16426656898814698,"dy":-3.069281267795403},{"OBJECT_ID":"2011-056A","OBJECT_NAME":"INTELSAT 18","NORAD_CAT_ID":"37834","OBJECT_TYPE":"PAYLOAD","PERIOD":"1436.119","INCLINATION":"0.0196","APOGEE":"35794.352","PERIGEE":"35779.729","ECCENTRICITY":"0.0001734","MEAN_MOTION":"1.00270201","TLE_LINE1":"1 37834U 11056A   16239.54617060  .00000023  00000-0  00000+0 0  9992","TLE_LINE2":"2 37834   0.0196 128.4242 0001734  40.8872 182.5128  1.00270201 17930","LAUNCH_DATE":"2011-10-05","LAUNCH_SITE":"TYURATAM MISSILE AND SPACE COMPLEX","OWNER":"INTERNATIONAL TELECOMMUNICATIONS SATELLITE ORGANIZATION (INTELSAT)","ORBIT_TYPE":"Geosynchronous","OPERATIONAL_STATUS":"Operational","satInfo":{"lng":22.23371641832808,"lat":1.2156606711102325,"elevation":-7.389731667136424,"azimuth":292.76628358167187,"range":42482.5579939563,"height":35761.04558250271,"velocity":3.0758359480593187},"x":101,"y":-261,"dx":2.8471416377948064,"dy":1.1638519122762463},{"OBJECT_ID":"2012-002C","OBJECT_NAME":"FENGYUN 2F AKM","NORAD_CAT_ID":"38072","OBJECT_TYPE":"ROCKET BODY","PERIOD":"1448.717","INCLINATION":"1.0965","APOGEE":"36285.313","PERIGEE":"35781.220","ECCENTRICITY":"0.0059429","MEAN_MOTION":"0.99398268","TLE_LINE1":"1 38072U 12002C   16239.41160662 -.00000197  00000-0  00000+0 0  9999","TLE_LINE2":"2 38072   1.0965  75.2120 0059429 128.1438  92.5013  0.99398268 16614","LAUNCH_DATE":"2012-01-13","LAUNCH_SITE":"Xichang Space Center, China","OWNER":"PEOPLES REPUBLIC OF CHINA","ORBIT_TYPE":"Geosynchronous","OPERATIONAL_STATUS":"N/A, derelict rocket body","satInfo":{"lng":138.16572728185622,"lat":-1.585876639520207,"elevation":-10.108883946972663,"azimuth":176.83427271814378,"range":42869.269028070536,"height":35841.78376500909,"velocity":3.0796104090904337},"x":178,"y":210,"dx":-2.2945473942230037,"dy":2.054033234259508},{"OBJECT_ID":"2012-007A","OBJECT_NAME":"SES 4","NORAD_CAT_ID":"38087","OBJECT_TYPE":"PAYLOAD","PERIOD":"1436.085","INCLINATION":"0.0189","APOGEE":"35796.472","PERIGEE":"35776.267","ECCENTRICITY":"0.0002396","MEAN_MOTION":"1.00272595","TLE_LINE1":"1 38087U 12007A   16239.38510905 -.00000197  00000-0  00000+0 0  9995","TLE_LINE2":"2 38087   0.0189 353.3740 0002396 168.6947 289.6247  1.00272595 16570","LAUNCH_DATE":"2012-02-14","LAUNCH_SITE":"TYURATAM MISSILE AND SPACE COMPLEX","OWNER":"SOCIÉTÉ EUROPÉENNE DES SATELLITES","ORBIT_TYPE":"Geosynchronous","OPERATIONAL_STATUS":"Operational","satInfo":{"lng":-80.84284916407346,"lat":0.363686261140154,"elevation":-8.222959011568305,"azimuth":35.84284916407344,"range":42579.08669230293,"height":35764.04215377537,"velocity":3.0752641767917086},"x":-264,"y":-45,"dx":0.489406472632031,"dy":-3.0360716496163684}]